[{"OBJECT_NAME":"ONEWEB-0375","OBJECT_ID":"2021-090Y","EPOCH":"2025-12-29T06:04:37.471872","MEAN_MOTION":13.20771925,"ECCENTRICITY":0.0002114,"INCLINATION":87.9216,"RA_OF_ASC_NODE":308.3264,"ARG_OF_PERICENTER":93.0662,"MEAN_ANOMALY":267.0713,"EPHEMERIS_TYPE":0,"CLASSIFICATION_TYPE":"U","NORAD_CAT_ID":49301,"ELEMENT_SET_NO":999,"REV_AT_EPOCH":20809,"BSTAR":0.0001878,"MEAN_MOTION_DOT":8.9e-7,"MEAN_MOTION_DDOT":0},{"OBJECT_NAME":"ONEWEB-0376","OBJECT_ID":"2021-090Z","EPOCH":"2025-12-29T10:25:40.431936","MEAN_MOTION":13.19724456,"ECCENTRICITY":0.0001819,"INCLINATION":87.9216,"RA_OF_ASC_NODE":338.7303,"ARG_OF_PERICENTER":76.1147,"MEAN_ANOMALY":284.0188,"EPHEMERIS_TYPE":0,"CLASSIFICATION_TYPE":"U","NORAD_CAT_ID":49302,"ELEMENT_SET_NO":999,"REV_AT_EPOCH":20406,"BSTAR":7.6443e-5,"MEAN_MOTION_DOT":4.4e-7,"MEAN_MOTION_DDOT":0},{"OBJECT_NAME":"ONEWEB-0377","OBJECT_ID":"2021-090AA","EPOCH":"2025-12-29T09:22:32.846016","MEAN_MOTION":13.20771299,"ECCENTRICITY":0.000169,"INCLINATION":87.922,"RA_OF_ASC_NODE":308.3013,"ARG_OF_PERICENTER":84.073,"MEAN_ANOMALY":276.0596,"EPHEMERIS_TYPE":0,"CLASSIFICATION_TYPE":"U","NORAD_CAT_ID":49303,"ELEMENT_SET_NO":999,"REV_AT_EPOCH":20810,"BSTAR":0.00011053,"MEAN_MOTION_DOT":5.8e-7,"MEAN_MOTION_DDOT":0},{"OBJECT_NAME":"ONEWEB-0378","OBJECT_ID":"2021-090AB","EPOCH":"2025-12-29T06:16:11.111808","MEAN_MOTION":13.20771908,"ECCENTRICITY":0.0001926,"INCLINATION":87.9213,"RA_OF_ASC_NODE":308.3407,"ARG_OF_PERICENTER":81.4679,"MEAN_ANOMALY":278.6673,"EPHEMERIS_TYPE":0,"CLASSIFICATION_TYPE":"U","NORAD_CAT_ID":49304,"ELEMENT_SET_NO":999,"REV_AT_EPOCH":20735,"BSTAR":0.00020918,"MEAN_MOTION_DOT":9.8e-7,"MEAN_MOTION_DDOT":0},{"OBJECT_NAME":"ONEWEB-0379","OBJECT_ID":"2021-090AC","EPOCH":"2025-12-29T08:54:42.069600","MEAN_MOTION":13.14503119,"ECCENTRICITY":0.0001893,"INCLINATION":87.9006,"RA_OF_ASC_NODE":323.5409,"ARG_OF_PERICENTER":80.5063,"MEAN_ANOMALY":279.6281,"EPHEMERIS_TYPE":0,"CLASSIFICATION_TYPE":"U","NORAD_CAT_ID":49305,"ELEMENT_SET_NO":999,"REV_AT_EPOCH":20525,"BSTAR":-0.00021188,"MEAN_MOTION_DOT":-6.6e-7,"MEAN_MOTION_DDOT":0},{"OBJECT_NAME":"ONEWEB-0380","OBJECT_ID":"2021-090AD","EPOCH":"2025-12-29T10:21:07.583328","MEAN_MOTION":13.19725811,"ECCENTRICITY":0.000183,"INCLINATION":87.9213,"RA_OF_ASC_NODE":338.7518,"ARG_OF_PERICENTER":91.5322,"MEAN_ANOMALY":268.6021,"EPHEMERIS_TYPE":0,"CLASSIFICATION_TYPE":"U","NORAD_CAT_ID":49306,"ELEMENT_SET_NO":999,"REV_AT_EPOCH":20403,"BSTAR":9.6786e-6,"MEAN_MOTION_DOT":1.7e-7,"MEAN_MOTION_DDOT":0},{"OBJECT_NAME":"ONEWEB-0381","OBJECT_ID":"2021-090AE","EPOCH":"2025-12-29T07:28:42.652128","MEAN_MOTION":13.20772072,"ECCENTRICITY":0.0001954,"INCLINATION":87.9221,"RA_OF_ASC_NODE":308.32,"ARG_OF_PERICENTER":86.0773,"MEAN_ANOMALY":274.0583,"EPHEMERIS_TYPE":0,"CLASSIFICATION_TYPE":"U","NORAD_CAT_ID":49307,"ELEMENT_SET_NO":999,"REV_AT_EPOCH":20740,"BSTAR":5.8218e-5,"MEAN_MOTION_DOT":3.7e-7,"MEAN_MOTION_DDOT":0},{"OBJECT_NAME":"ONEWEB-0382","OBJECT_ID":"2021-090AF","EPOCH":"2025-12-29T08:59:35.337120","MEAN_MOTION":13.20769236,"ECCENTRICITY":0.0002103,"INCLINATION":87.9221,"RA_OF_ASC_NODE":308.3037,"ARG_OF_PERICENTER":83.183,"MEAN_ANOMALY":276.9543,"EPHEMERIS_TYPE":0,"CLASSIFICATION_TYPE":"U","NORAD_CAT_ID":49308,"ELEMENT_SET_NO":999,"REV_AT_EPOCH":20740,"BSTAR":-5.3134e-5,"MEAN_MOTION_DOT":-9.0e-8,"MEAN_MOTION_DDOT":0},{"OBJECT_NAME":"ONEWEB-0383","OBJECT_ID":"2021-090AG","EPOCH":"2025-12-29T10:35:10.018752","MEAN_MOTION":13.14501386,"ECCENTRICITY":0.0001978,"INCLINATION":87.9012,"RA_OF_ASC_NODE":323.5118,"ARG_OF_PERICENTER":81.3466,"MEAN_ANOMALY":278.7887,"EPHEMERIS_TYPE":0,"CLASSIFICATION_TYPE":"U","NORAD_CAT_ID":49309,"ELEMENT_SET_NO":999,"REV_AT_EPOCH":20529,"BSTAR":0.00015878,"MEAN_MOTION_DOT":7.2e-7,"MEAN_MOTION_DDOT":0},{"OBJECT_NAME":"ONEWEB-0384","OBJECT_ID":"2021-090AH","EPOCH":"2025-12-29T08:49:36.793344","MEAN_MOTION":13.20800355,"ECCENTRICITY":0.0002351,"INCLINATION":87.9232,"RA_OF_ASC_NODE":308.3424,"ARG_OF_PERICENTER":82.0667,"MEAN_ANOMALY":278.0733,"EPHEMERIS_TYPE":0,"CLASSIFICATION_TYPE":"U","NORAD_CAT_ID":49310,"ELEMENT_SET_NO":999,"REV_AT_EPOCH":20741,"BSTAR":-3.6695e-6,"MEAN_MOTION_DOT":1.1e-7,"MEAN_MOTION_DDOT":0},{"OBJECT_NAME":"ONEWEB-0385","OBJECT_ID":"2021-090AJ","EPOCH":"2025-12-29T08:48:15.371712","MEAN_MOTION":13.20770888,"ECCENTRICITY":0.0001943,"INCLINATION":87.9221,"RA_OF_ASC_NODE":308.3096,"ARG_OF_PERICENTER":82.381,"MEAN_ANOMALY":277.7544,"EPHEMERIS_TYPE":0,"CLASSIFICATION_TYPE":"U","NORAD_CAT_ID":49311,"ELEMENT_SET_NO":999,"REV_AT_EPOCH":20738,"BSTAR":-0.00012044,"MEAN_MOTION_DOT":-3.6e-7,"MEAN_MOTION_DDOT":0},{"OBJECT_NAME":"ONEWEB-0386","OBJECT_ID":"2021-090AK","EPOCH":"2025-12-28T22:18:43.140672","MEAN_MOTION":13.20771457,"ECCENTRICITY":0.00020752,"INCLINATION":87.9223,"RA_OF_ASC_NODE":308.3812,"ARG_OF_PERICENTER":81.2992,"MEAN_ANOMALY":278.8376,"EPHEMERIS_TYPE":0,"CLASSIFICATION_TYPE":"U","NORAD_CAT_ID":49312,"ELEMENT_SET_NO":999,"REV_AT_EPOCH":20734,"BSTAR":-0.00010642755,"MEAN_MOTION_DOT":-3.0e-7,"MEAN_MOTION_DDOT":0},{"OBJECT_NAME":"ONEWEB-0387","OBJECT_ID":"2021-090AL","EPOCH":"2025-12-29T08:50:31.837056","MEAN_MOTION":13.20771197,"ECCENTRICITY":0.0001819,"INCLINATION":87.9212,"RA_OF_ASC_NODE":308.3379,"ARG_OF_PERICENTER":87.9433,"MEAN_ANOMALY":272.1909,"EPHEMERIS_TYPE":0,"CLASSIFICATION_TYPE":"U","NORAD_CAT_ID":49313,"ELEMENT_SET_NO":999,"REV_AT_EPOCH":20740,"BSTAR":-9.1719e-5,"MEAN_MOTION_DOT":-2.4e-7,"MEAN_MOTION_DDOT":0},{"OBJECT_NAME":"ONEWEB-0388","OBJECT_ID":"2021-090AM","EPOCH":"2025-12-29T08:25:07.860288","MEAN_MOTION":13.19725377,"ECCENTRICITY":0.0001935,"INCLINATION":87.9208,"RA_OF_ASC_NODE":338.7675,"ARG_OF_PERICENTER":85.9297,"MEAN_ANOMALY":274.2057,"EPHEMERIS_TYPE":0,"CLASSIFICATION_TYPE":"U","NORAD_CAT_ID":49314,"ELEMENT_SET_NO":999,"REV_AT_EPOCH":20401,"BSTAR":-1.4469e-5,"MEAN_MOTION_DOT":7.0e-8,"MEAN_MOTION_DDOT":0},{"OBJECT_NAME":"ONEWEB-0389","OBJECT_ID":"2021-132A","EPOCH":"2025-12-29T02:26:26.688192","MEAN_MOTION":13.1765042,"ECCENTRICITY":0.0002056,"INCLINATION":87.9099,"RA_OF_ASC_NODE":39.6865,"ARG_OF_PERICENTER":105.2317,"MEAN_ANOMALY":254.9042,"EPHEMERIS_TYPE":0,"CLASSIFICATION_TYPE":"U","NORAD_CAT_ID":50469,"ELEMENT_SET_NO":999,"REV_AT_EPOCH":19568,"BSTAR":0.00013694927,"MEAN_MOTION_DOT":6.6e-7,"MEAN_MOTION_DDOT":0},{"OBJECT_NAME":"ONEWEB-0390","OBJECT_ID":"2021-132B","EPOCH":"2025-12-29T02:28:51.297600","MEAN_MOTION":13.17651075,"ECCENTRICITY":0.00015152,"INCLINATION":87.9094,"RA_OF_ASC_NODE":39.6876,"ARG_OF_PERICENTER":101.3754,"MEAN_ANOMALY":258.7548,"EPHEMERIS_TYPE":0,"CLASSIFICATION_TYPE":"U","NORAD_CAT_ID":50470,"ELEMENT_SET_NO":999,"REV_AT_EPOCH":19568,"BSTAR":0.00021985973,"MEAN_MOTION_DOT":9.8e-7,"MEAN_MOTION_DDOT":0},{"OBJECT_NAME":"ONEWEB-0391","OBJECT_ID":"2021-132C","EPOCH":"2025-12-29T02:31:19.141824","MEAN_MOTION":13.17648848,"ECCENTRICITY":0.0002097,"INCLINATION":87.9093,"RA_OF_ASC_NODE":39.6968,"ARG_OF_PERICENTER":121.4844,"MEAN_ANOMALY":238.6492,"EPHEMERIS_TYPE":0,"CLASSIFICATION_TYPE":"U","NORAD_CAT_ID":50471,"ELEMENT_SET_NO":999,"REV_AT_EPOCH":19568,"BSTAR":4.5716107e-5,"MEAN_MOTION_DOT":3.1e-7,"MEAN_MOTION_DDOT":0}]
