ONEWEB-0375             
1 49301U 21090Y   25363.25321148  .00000089  00000+0  18780-3 0  9997
2 49301  87.9216 308.3264 0002114  93.0662 267.0713 13.20771925208094
ONEWEB-0376             
1 49302U 21090Z   25363.43449574  .00000044  00000+0  76443-4 0  9994
2 49302  87.9216 338.7303 0001819  76.1147 284.0188 13.19724456204060
ONEWEB-0377             
1 49303U 21090AA  25363.39065794  .00000058  00000+0  11053-3 0  9998
2 49303  87.9220 308.3013 0001690  84.0730 276.0596 13.20771299208102
ONEWEB-0378             
1 49304U 21090AB  25363.26123972  .00000098  00000+0  20918-3 0  9992
2 49304  87.9213 308.3407 0001926  81.4679 278.6673 13.20771908207354
ONEWEB-0379             
1 49305U 21090AC  25363.37132025 -.00000066  00000+0 -21188-3 0  9991
2 49305  87.9006 323.5409 0001893  80.5063 279.6281 13.14503119205259
ONEWEB-0380             
1 49306U 21090AD  25363.43133777  .00000017  00000+0  96786-5 0  9996
2 49306  87.9213 338.7518 0001830  91.5322 268.6021 13.19725811204035
ONEWEB-0381             
1 49307U 21090AE  25363.31160477  .00000037  00000+0  58218-4 0  9990
2 49307  87.9221 308.3200 0001954  86.0773 274.0583 13.20772072207403
ONEWEB-0382             
1 49308U 21090AF  25363.37471455 -.00000009  00000+0 -53134-4 0  9991
2 49308  87.9221 308.3037 0002103  83.1830 276.9543 13.20769236207406
ONEWEB-0383             
1 49309U 21090AG  25363.44108818  .00000072  00000+0  15878-3 0  9990
2 49309  87.9012 323.5118 0001978  81.3466 278.7887 13.14501386205297
ONEWEB-0384             
1 49310U 21090AH  25363.36778696  .00000011  00000+0 -36695-5 0  9996
2 49310  87.9232 308.3424 0002351  82.0667 278.0733 13.20800355207415
ONEWEB-0385             
1 49311U 21090AJ  25363.36684458 -.00000036  00000+0 -12044-3 0  9997
2 49311  87.9221 308.3096 0001943  82.3810 277.7544 13.20770888207387
ONEWEB-0386             
1 49312U 21090AK  25362.92966598 -.00000030  00000+0 -10643-3 0  9994
2 49312  87.9223 308.3812 0002075  81.2992 278.8376 13.20771457207346
ONEWEB-0387             
1 49313U 21090AL  25363.36842404 -.00000024  00000+0 -91719-4 0  9990
2 49313  87.9212 308.3379 0001819  87.9433 272.1909 13.20771197207408
ONEWEB-0388             
1 49314U 21090AM  25363.35078542  .00000007  00000+0 -14469-4 0  9991
2 49314  87.9208 338.7675 0001935  85.9297 274.2057 13.19725377204013
ONEWEB-0389             
1 50469U 21132A   25363.10169778  .00000066  00000+0  13695-3 0  9999
2 50469  87.9099  39.6865 0002056 105.2317 254.9042 13.17650420195681
ONEWEB-0390             
1 50470U 21132B   25363.10337150  .00000098  00000+0  21986-3 0  9999
2 50470  87.9094  39.6876 0001515 101.3754 258.7548 13.17651075195681
ONEWEB-0391             
1 50471U 21132C   25363.10508266  .00000031  00000+0  45716-4 0  9993
2 50471  87.9093  39.6968 0002097 121.4844 238.6492 13.17648848195681
